0 METEOSAT 8 (MSG 1)
1 27509U 02040B   13281.30989237  .00000012  00000-0  00000+0 0  5724
2 27509 002.3512 062.5841 0001738 166.0155 263.5606 01.00272315 40774
0 METEOSAT 8 (MSG 1)
1 27509U 02040B   13281.30989237  .00000012  00000-0  00000+0 0  5735
2 27509 002.3512 062.5841 0001738 166.0155 263.5606 01.00272315 40774
0 METEOSAT 8 (MSG 1)
1 27509U 02040B   13281.30989237  .00000012  00000-0  00000+0 0  5746
2 27509 002.3512 062.5841 0001738 166.0155 263.5606 01.00272315 40774
0 METEOSAT 8 (MSG 1)
1 27509U 02040B   13283.26915270  .00000006  00000-0  00000+0 0  5753
2 27509 002.3553 062.5857 0001851 168.5951 248.2431 01.00272982 40791
0 METEOSAT 8 (MSG 1)
1 27509U 02040B   13284.15763517  .00000004  00000-0  00000+0 0  5766
2 27509 002.3572 062.5855 0001896 169.7565 207.8122 01.00273291 40807
0 METEOSAT 8 (MSG 1)
1 27509U 02040B   13285.09309479  .00000001  00000-0  00000+0 0  5771
2 27509 002.3591 062.5846 0001938 171.0420 184.2167 01.00273619 40813
0 METEOSAT 8 (MSG 1)
1 27509U 02040B   13286.16092075 -.00000001  00000-0  00000+0 0  5783
2 27509 002.3612 062.5855 0001976 172.6701 208.0611 01.00273983 40822
0 METEOSAT 8 (MSG 1)
1 27509U 02040B   13286.16092075 -.00000001  00000-0  00000+0 0  5794
2 27509 002.3612 062.5855 0001976 172.6701 208.0611 01.00273983 40822
0 METEOSAT 8 (MSG 1)
1 27509U 02040B   13286.16092075 -.00000001  00000-0  00000+0 0  5806
2 27509 002.3612 062.5855 0001976 172.6701 208.0611 01.00273983 40822
0 METEOSAT 8 (MSG 1)
1 27509U 02040B   13287.15671310 -.00000001  00000-0  00000+0 0  5812
2 27509 002.3631 062.5849 0002002 174.1678 206.0355 01.00274307 40832
0 METEOSAT 8 (MSG 1)
1 27509U 02040B   13288.08095116 -.00000001  00000-0  00000+0 0  5820
2 27509 002.3649 062.5832 0002016 175.6247 178.2228 01.00274593 40843
0 METEOSAT 8 (MSG 1)
1 27509U 02040B   13289.22886321 -.00000000  00000-0  00000+0 0  5833
2 27509 002.3671 062.5835 0002007 176.8909 231.3453 01.00274924 40859
0 METEOSAT 8 (MSG 1)
1 27509U 02040B   13289.22886321 -.00000000  00000-0  00000+0 0  5844
2 27509 002.3671 062.5835 0002007 176.8909 231.3453 01.00274924 40859
0 METEOSAT 8 (MSG 1)
1 27509U 02040B   13290.14131095  .00000001  00000-0  00000+0 0  5859
2 27509 002.3689 062.5815 0001998 178.2578 199.3697 01.00275161 40860
0 METEOSAT 8 (MSG 1)
1 27509U 02040B   13291.26162365  .00000003  00000-0  00000+0 0  5860
2 27509 002.3710 062.5805 0001993 180.1514 241.9064 01.00275424 40876
0 METEOSAT 8 (MSG 1)
1 27509U 02040B   13291.26162365  .00000003  00000-0  00000+0 0  5871
2 27509 002.3710 062.5805 0001993 180.1514 241.9064 01.00275424 40876
0 METEOSAT 8 (MSG 1)
1 27509U 02040B   13292.19472035  .00000005  00000-0  00000+0 0  5885
2 27509 002.3729 062.5789 0001964 181.1173 217.7886 01.00275618 40886
0 METEOSAT 8 (MSG 1)
1 27509U 02040B   13293.12831360  .00000007  00000-0  00000+0 0  5892
2 27509 002.3747 062.5768 0001933 181.9291 194.0059 01.00275791 40890
0 METEOSAT 8 (MSG 1)
1 27509U 02040B   13294.16438693  .00000009  00000-0  00000+0 0  5903
2 27509 002.3768 062.5757 0001902 182.7419 207.2176 01.00275962 40907
0 METEOSAT 8 (MSG 1)
1 27509U 02040B   13294.16438693  .00000009  00000-0  00000+0 0  5914
2 27509 002.3768 062.5757 0001902 182.7419 207.2176 01.00275962 40907
0 METEOSAT 8 (MSG 1)
1 27509U 02040B   13295.17945612  .00000011  00000-0  00000+0 0  5924
2 27509 002.3788 062.5750 0001861 182.9366 213.4658 01.00276111 40911
0 METEOSAT 8 (MSG 1)
1 27509U 02040B   13295.17945612  .00000011  00000-0  00000+0 0  5935
2 27509 002.3788 062.5750 0001861 182.9366 213.4658 01.00276111 40911
